{"fetched_at":"2026-07-08T18:00:37.185Z","source":"https://celestrak.org/NORAD/elements/gp.php?NAME=SENTINEL&FORMAT=JSON","constellation":"sentinel-2","records":[{"OBJECT_NAME":"SENTINEL-2A","OBJECT_ID":"2015-028A","EPOCH":"2026-07-08T11:21:43.612416","CLASSIFICATION_TYPE":"U","MEAN_MOTION":14.30822333,"ECCENTRICITY":0.0001243,"INCLINATION":98.5674,"RA_OF_ASC_NODE":264.0229,"ARG_OF_PERICENTER":95.5664,"MEAN_ANOMALY":264.5661,"EPHEMERIS_TYPE":0,"NORAD_CAT_ID":40697,"ELEMENT_SET_NO":999,"REV_AT_EPOCH":57677,"BSTAR":0.00014031,"MEAN_MOTION_DOT":0.00000324,"MEAN_MOTION_DDOT":0},{"OBJECT_NAME":"SENTINEL-2B","OBJECT_ID":"2017-013A","EPOCH":"2026-07-08T11:11:22.658208","CLASSIFICATION_TYPE":"U","MEAN_MOTION":14.30814969,"ECCENTRICITY":0.0001206,"INCLINATION":98.5681,"RA_OF_ASC_NODE":263.9404,"ARG_OF_PERICENTER":90.3401,"MEAN_ANOMALY":269.792,"EPHEMERIS_TYPE":0,"NORAD_CAT_ID":42063,"ELEMENT_SET_NO":999,"REV_AT_EPOCH":48768,"BSTAR":0.00015839,"MEAN_MOTION_DOT":0.00000372,"MEAN_MOTION_DDOT":0},{"OBJECT_NAME":"SENTINEL-2C","OBJECT_ID":"2024-157A","EPOCH":"2026-07-08T12:01:45.184224","CLASSIFICATION_TYPE":"U","MEAN_MOTION":14.30814447,"ECCENTRICITY":0.000094,"INCLINATION":98.5685,"RA_OF_ASC_NODE":263.9811,"ARG_OF_PERICENTER":97.142,"MEAN_ANOMALY":262.987,"EPHEMERIS_TYPE":0,"NORAD_CAT_ID":60989,"ELEMENT_SET_NO":999,"REV_AT_EPOCH":9603,"BSTAR":0.000039985,"MEAN_MOTION_DOT":6.1e-7,"MEAN_MOTION_DDOT":0}]}
