SENTINEL-2A             
1 40697U 15028A   26189.47342144  .00000324  00000+0  14031-3 0  9997
2 40697  98.5674 264.0229 0001243  95.5664 264.5661 14.30822333576778
SENTINEL-2B             
1 42063U 17013A   26189.46623447  .00000372  00000+0  15839-3 0  9999
2 42063  98.5681 263.9404 0001206  90.3401 269.7920 14.30814969487681
SENTINEL-2C             
1 60989U 24157A   26189.50121741  .00000061  00000+0  39985-4 0  9992
2 60989  98.5685 263.9811 0000940  97.1420 262.9870 14.30814447 96039
